INTELSAT 21 (IS-21)     
1 38749U 12045A   26161.25717292 -.00000267  00000+0  00000+0 0  9998
2 38749   0.0227 283.3658 0001676 177.3275 192.4944  1.00267022 50458
INTELSAT 23 (IS-23)     
1 38867U 12057A   26161.25812625 -.00000267  00000+0  00000+0 0  9998
2 38867   0.0174 299.9383 0000088 129.2663 229.3544  1.00269083 49881
FM-6                    
1 39360U 13058A   26159.62959519  .00000003  00000+0  00000+0 0  9998
2 39360   0.0107  82.6412 0002771  69.5183 215.1325  1.00255605 45982
INTELSAT 30 (IS-30)     
1 40271U 14062A   26161.03591126 -.00000132  00000+0  00000+0 0  9995
2 40271   0.0228  41.0330 0000821 352.5032 142.6782  1.00267059  6725
DIRECTV 14              
1 40333U 14078B   26160.05357880 -.00000109  00000+0  00000+0 0  9993
2 40333   0.0091   1.3268 0000235 206.1301 330.0282  1.00271044 41965
DIRECTV 15              
1 40663U 15026A   26161.24830157 -.00000085  00000+0  00000+0 0  9991
2 40663   0.0184   3.7345 0000653 280.2777 321.1253  1.00269531 40393
SKY MEXICO-1            
1 40664U 15026B   26161.18173657 -.00000217  00000+0  00000+0 0  9997
2 40664   0.0149 307.2100 0002102 150.5136 147.4526  1.00270961 40385
INTELSAT 34 (IS-34)     
1 40874U 15039A   26161.25769292 -.00000268  00000+0  00000+0 0  9994
2 40874   0.0113 322.7949 0000364  13.9529 319.1622  1.00270241 39562
INTELSAT 31 (IS-31)     
1 41581U 16035A   26161.24977492 -.00000133  00000+0  00000+0 0  9990
2 41581   0.0171 265.1306 0000987 337.9900  10.3653  1.00269751 36613
INTELSAT 36 (IS-36)     
1 41747U 16053A   26161.21096477 -.00000007  00000+0  00000+0 0  9996
2 41747   0.0115 357.5036 0001858 336.5539  68.9581  1.00270448 35884
INTELSAT 32E (IS-32E)   
1 41945U 17007B   26160.08652259 -.00000252  00000+0  00000+0 0  9998
2 41945   0.0023 348.0424 0000672 336.8096 280.6015  1.00274840 34145
INTELSAT 35E (IS-35E)   
1 42818U 17041A   26160.97662619 -.00000221  00000+0  00000+0 0  9991
2 42818   0.0181   6.8127 0001661  70.9977 137.6483  1.00271386 32748
INTELSAT 37E (IS-37E)   
1 42950U 17059A   26161.26505962 -.00000123  00000+0  00000+0 0  9998
2 42950   0.0183   5.5075 0002371  95.9590 234.5834  1.00270075 31999
AZERSPACE 2 (IS-38)     
1 43632U 18074A   26161.20628475  .00000154  00000+0  00000+0 0  9996
2 43632   0.0026  68.5663 0001233  12.8664 296.5131  1.00271659 28376
HORIZONS-3E             
1 43633U 18074B   26160.16142285 -.00000014  00000+0  00000+0 0  9997
2 43633   0.0093 158.1609 0000957 124.5481 201.9406  1.00270197 28266
AT&T T-16               
1 44333U 19034A   26160.67834545 -.00000098  00000+0  00000+0 0  9997
2 44333   0.0247  68.1337 0000640 190.5571 142.7032  1.00268740 25552
INTELSAT 39 (IS-39)     
1 44476U 19049B   26161.20966476  .00000051  00000+0  00000+0 0  9998
2 44476   0.0193 319.5347 0000903 353.1759  83.2984  1.00270440 25051
GALAXY 30 (G-30)        
1 46114U 20056C   26161.24388156  .00000054  00000+0  00000+0 0  9999
2 46114   0.0193 321.8102 0002113 112.8333 146.7690  1.00273455 21223
GALAXY 33 (G-33)        
1 54026U 22128A   26161.23944558  .00000096  00000+0  00000+0 0  9991
2 54026   0.0097 315.2442 0001794 130.7369 125.8396  1.00271606 13670
GALAXY 34 (G-34)        
1 54027U 22128B   26159.95980211  .00000075  00000+0  00000+0 0  9991
2 54027   0.0154 329.7482 0001861 136.9348   7.2031  1.00274719 13834
GALAXY 31 (G-31)        
1 54243U 22153A   26161.24466156  .00000031  00000+0  00000+0 0  9993
2 54243   0.0153 287.9232 0001233 150.1222 147.6497  1.00272139  7060
GALAXY 32 (G-32)        
1 54244U 22153B   26160.32382733 -.00000157  00000+0  00000+0 0  9990
2 54244   0.0091 331.9838 0002164  65.0548 246.2445  1.00270919 13063
GALAXY 35 (G-35)        
1 54741U 22170A   26160.45862207 -.00000145  00000+0  00000+0 0  9991
2 54741   0.0337 106.4075 0002031 335.1959 248.2408  1.00271145 12811
GALAXY 36 (G-36)        
1 54742U 22170B   26161.25098825 -.00000168  00000+0  00000+0 0  9993
2 54742   0.0078  28.5141 0002605  55.3387 176.1198  1.00270518 12701
GALAXY 37 (G-37)        
1 57493U 23112A   26161.24353490  .00000065  00000+0  00000+0 0  9992
2 57493   0.0183   0.4076 0001866  80.0650 138.8145  1.00271927 10470
